OBJECT_NAME,OBJECT_ID,EPOCH,MEAN_MOTION,ECCENTRICITY,INCLINATION,RA_OF_ASC_NODE,ARG_OF_PERICENTER,MEAN_ANOMALY,EPHEMERIS_TYPE,CLASSIFICATION_TYPE,NORAD_CAT_ID,ELEMENT_SET_NO,REV_AT_EPOCH,BSTAR,MEAN_MOTION_DOT,MEAN_MOTION_DDOT
HYLAS 2,2012-043B,2026-06-08T13:02:12.220800,1.00271188,.00027442,2.4039,81.1726,19.7002,279.0467,0,U,38741,999,5068,0,-.241E-5,0
INTELSAT 21 (IS-21),2012-045A,2026-06-08T11:23:44.099808,1.00270275,.0001793,0.0275,278.1707,180.5787,271.0605,0,U,38749,999,5043,0,-.269E-5,0
ASTRA 2F,2012-051A,2026-06-08T17:49:44.145120,1.00273488,.0001055,0.0438,256.0026,278.8991,17.8530,0,U,38778,999,4105,0,.166E-5,0
GSAT-10,2012-051B,2026-06-08T17:12:01.418112,1.00271593,.0007954,0.0142,274.8392,174.5967,148.7064,0,U,38779,999,5001,0,-.149E-5,0
INTELSAT 23 (IS-23),2012-057A,2026-06-08T18:15:47.462400,1.00275020,.0000514,0.0052,337.0772,121.5691,19.4614,0,U,38867,999,4987,0,-.268E-5,0
BEIDOU-2 G6,2012-059A,2026-06-08T17:44:50.572608,1.00274428,.0010182,4.3991,73.6116,324.9107,208.8147,0,U,38953,999,4982,0,-.16E-5,0
LUCH-5B,2012-061A,2026-06-07T23:37:00.003648,1.00273996,.00018264,10.4613,49.9703,137.8751,46.4873,0,U,38977,999,4951,0,-.125E-5,0
YAMAL 300K,2012-061B,2026-06-08T19:23:08.698848,1.00271554,.0001245,0.0103,269.4016,305.0739,156.4611,0,U,38978,999,4954,0,.88E-6,0
STAR ONE C3,2012-062A,2026-06-08T18:09:37.544256,1.00269366,.0002524,0.0185,4.9756,89.1349,0.4323,0,U,38991,999,4968,0,-.233E-5,0
EUTELSAT 21B,2012-062B,2026-06-08T20:12:53.697024,1.00271270,.0003038,0.0653,354.4262,79.7969,147.7948,0,U,38992,999,4974,0,.146E-5,0
ECHOSTAR 16,2012-065A,2026-06-08T11:22:44.196096,1.00271238,.000179,0.0186,342.7789,97.9025,285.3777,0,U,39008,999,4955,0,-.266E-5,0
ZHONGXING-12,2012-067A,2026-06-08T20:38:36.170304,1.00270804,.000329,0.0502,96.8998,338.4971,219.0023,0,U,39017,999,4942,0,-.19E-5,0
EUTELSAT 70B,2012-069A,2026-06-08T20:44:51.651744,1.00271719,.0003983,0.0610,357.3240,73.2614,208.3624,0,U,39020,999,4942,0,-.27E-6,0
YAMAL 402,2012-070A,2026-06-08T20:38:49.555392,1.00271965,.0003808,1.2427,84.2651,349.7714,187.8119,0,U,39022,999,4931,0,.102E-5,0
SKYNET 5D,2012-075A,2026-06-08T20:23:37.721760,1.00272981,.000379,0.0664,2.8994,83.4179,169.6083,0,U,39034,999,4907,0,.115E-5,0
MEXSAT 3,2012-075B,2026-06-08T16:15:36.578016,1.00269012,.0001326,0.0300,88.0217,344.2301,313.9172,0,U,39035,999,696,0,-.9E-7,0
TDRS 11,2013-004A,2026-06-08T15:58:38.206272,1.00266471,.0005649,3.5088,31.1257,16.2992,274.9795,0,U,39070,999,4660,0,.94E-6,0
AMAZONAS 3,2013-006A,2026-06-08T18:13:32.678400,1.00269682,.0002169,0.0016,286.6983,185.0194,357.8147,0,U,39078,999,4483,0,-.266E-5,0
AZERSPACE 1,2013-006B,2026-06-08T18:44:07.494720,1.00276467,.0001355,0.0121,298.8742,161.4103,123.9048,0,U,39079,999,4872,0,.149E-5,0
SBIRS GEO-2 (USA 241),2013-011A,2026-06-08T13:08:41.597952,1.00271533,.00021555,4.4719,52.5068,16.6643,335.1286,0,U,39120,999,4844,0,-.271E-5,0
EUTELSAT 117 WEST A,2013-012A,2026-06-08T15:06:37.039104,1.00272048,.0002794,0.0450,65.0964,16.7168,285.0576,0,U,39122,999,4834,0,.3E-7,0
ANIK G1,2013-014A,2026-06-08T16:17:43.876320,1.00271822,.0001682,0.0469,88.4778,342.6310,323.0879,0,U,39127,999,4816,0,-.58E-6,0
ZHONGXING-11,2013-020A,2026-06-08T20:51:26.739936,1.00273502,.0002488,0.0335,44.9870,27.1741,235.8724,0,U,39157,999,4781,0,-.274E-5,0
EUTELSAT 7B,2013-022A,2026-06-08T18:32:53.321568,1.00271314,.0004975,0.0691,11.5902,24.2456,146.5390,0,U,39163,999,4786,0,.64E-6,0
WGS F5 (USA 243),2013-024A,2026-06-08T18:16:02.438112,1.00270126,.0000154,0.0195,312.3249,88.1155,78.2171,0,U,39168,999,4709,0,-.268E-5,0
SES-6,2013-026A,2026-06-08T18:19:24.614112,1.00269988,.0002663,0.0210,323.3527,131.9629,36.1869,0,U,39172,999,4764,0,-.245E-5,0
IRNSS-1A,2013-034A,2026-05-22T20:37:38.469792,1.00280263,.00166187,35.6649,64.2334,185.3754,355.4646,0,U,39199,999,4711,0,.59E-6,0
MUOS-2,2013-036A,2026-06-08T14:01:05.291328,1.00271722,.00506574,4.9790,45.5230,177.9345,55.7195,0,U,39206,999,4710,0,.2E-7,0
ALPHASAT,2013-038A,2026-06-08T17:47:23.040096,1.00268594,.0001899,2.9979,1.3647,91.0815,96.3885,0,U,39215,999,4393,0,.148E-5,0
INSAT-3D,2013-038B,2026-06-08T19:07:55.158816,1.00273715,.0000784,1.9033,82.6489,318.0387,272.9854,0,U,39216,999,4699,0,-.322E-5,0
WGS F6 (USA 244),2013-041A,2026-06-08T17:52:24.195072,1.00271265,.0000003,0.0025,73.3501,260.8497,55.8650,0,U,39222,999,4597,0,.105E-5,0
ES'HAIL 1,2013-044A,2026-06-08T17:46:34.129056,1.00271052,.000232,0.0488,4.0774,69.5838,115.5775,0,U,39233,999,4654,0,.159E-5,0
