HYLAS 2                 
1 38741U 12043B   26159.54319700 -.00000241  00000+0  00000+0 0  9991
2 38741   2.4039  81.1726 0002744  19.7002 279.0467  1.00271188 50686
INTELSAT 21 (IS-21)     
1 38749U 12045A   26159.47481597 -.00000269  00000+0  00000+0 0  9997
2 38749   0.0275 278.1707 0001793 180.5787 271.0605  1.00270275 50432
ASTRA 2F                
1 38778U 12051A   26159.74287205  .00000166  00000+0  00000+0 0  9991
2 38778   0.0438 256.0026 0001055 278.8991  17.8530  1.00273488 41053
GSAT-10                 
1 38779U 12051B   26159.71668308 -.00000149  00000+0  00000+0 0  9998
2 38779   0.0142 274.8392 0007954 174.5967 148.7064  1.00271593 50016
INTELSAT 23 (IS-23)     
1 38867U 12057A   26159.76096600 -.00000268  00000+0  00000+0 0  9999
2 38867   0.0052 337.0772 0000514 121.5691  19.4614  1.00275020 49875
BEIDOU-2 G6             
1 38953U 12059A   26159.73947422 -.00000160  00000+0  00000+0 0  9992
2 38953   4.3991  73.6116 0010182 324.9107 208.8147  1.00274428 49829
LUCH-5B                 
1 38977U 12061A   26158.98402782 -.00000125  00000+0  00000+0 0  9993
2 38977  10.4613  49.9703 0001826 137.8751  46.4873  1.00273996 49510
YAMAL 300K              
1 38978U 12061B   26159.80773957  .00000088  00000+0  00000+0 0  9998
2 38978   0.0103 269.4016 0001245 305.0739 156.4611  1.00271554 49549
STAR ONE C3             
1 38991U 12062A   26159.75668454 -.00000233  00000+0  00000+0 0  9996
2 38991   0.0185   4.9756 0002524  89.1349   0.4323  1.00269366 49686
EUTELSAT 21B            
1 38992U 12062B   26159.84228816  .00000146  00000+0  00000+0 0  9993
2 38992   0.0653 354.4262 0003038  79.7969 147.7948  1.00271270 49748
ECHOSTAR 16             
1 39008U 12065A   26159.47412264 -.00000266  00000+0  00000+0 0  9990
2 39008   0.0186 342.7789 0001790  97.9025 285.3777  1.00271238 49552
ZHONGXING-12            
1 39017U 12067A   26159.86014086 -.00000190  00000+0  00000+0 0  9991
2 39017   0.0502  96.8998 0003290 338.4971 219.0023  1.00270804 49425
EUTELSAT 70B            
1 39020U 12069A   26159.86448671 -.00000027  00000+0  00000+0 0  9997
2 39020   0.0610 357.3240 0003983  73.2614 208.3624  1.00271719 49425
YAMAL 402               
1 39022U 12070A   26159.86029578  .00000102  00000+0  00000+0 0  9995
2 39022   1.2427  84.2651 0003808 349.7714 187.8119  1.00271965 49317
SKYNET 5D               
1 39034U 12075A   26159.84974215  .00000115  00000+0  00000+0 0  9992
2 39034   0.0664   2.8994 0003790  83.4179 169.6083  1.00272981 49073
MEXSAT 3                
1 39035U 12075B   26159.67750669 -.00000009  00000+0  00000+0 0  9992
2 39035   0.0300  88.0217 0001326 344.2301 313.9172  1.00269012  6968
TDRS 11                 
1 39070U 13004A   26159.66571998  .00000094  00000+0  00000+0 0  9992
2 39070   3.5088  31.1257 0005649  16.2992 274.9795  1.00266471 46603
AMAZONAS 3              
1 39078U 13006A   26159.75940600 -.00000266  00000+0  00000+0 0  9994
2 39078   0.0016 286.6983 0002169 185.0194 357.8147  1.00269682 44832
AZERSPACE 1             
1 39079U 13006B   26159.78064230  .00000149  00000+0  00000+0 0  9993
2 39079   0.0121 298.8742 0001355 161.4103 123.9048  1.00276467 48725
SBIRS GEO-2 (USA 241)   
1 39120U 13011A   26159.54770368 -.00000271  00000+0  00000+0 0  9993
2 39120   4.4719  52.5068 0002155  16.6643 335.1286  1.00271533 48447
EUTELSAT 117 WEST A     
1 39122U 13012A   26159.62959536  .00000003  00000+0  00000+0 0  9993
2 39122   0.0450  65.0964 0002794  16.7168 285.0576  1.00272048 48345
ANIK G1                 
1 39127U 13014A   26159.67898005 -.00000058  00000+0  00000+0 0  9999
2 39127   0.0469  88.4778 0001682 342.6310 323.0879  1.00271822 48165
ZHONGXING-11            
1 39157U 13020A   26159.86905949 -.00000274  00000+0  00000+0 0  9996
2 39157   0.0335  44.9870 0002488  27.1741 235.8724  1.00273502 47815
EUTELSAT 7B             
1 39163U 13022A   26159.77283937  .00000064  00000+0  00000+0 0  9997
2 39163   0.0691  11.5902 0004975  24.2456 146.5390  1.00271314 47868
WGS F5 (USA 243)        
1 39168U 13024A   26159.76113933 -.00000268  00000+0  00000+0 0  9998
2 39168   0.0195 312.3249 0000154  88.1155  78.2171  1.00270126 47091
SES-6                   
1 39172U 13026A   26159.76347933 -.00000245  00000+0  00000+0 0  9999
2 39172   0.0210 323.3527 0002663 131.9629  36.1869  1.00269988 47647
IRNSS-1A                
1 39199U 13034A   26142.85947303  .00000059  00000+0  00000+0 0  9998
2 39199  35.6649  64.2334 0016618 185.3754 355.4646  1.00280263 47111
MUOS-2                  
1 39206U 13036A   26159.58408902  .00000002  00000+0  00000+0 0  9992
2 39206   4.9790  45.5230 0050657 177.9345  55.7195  1.00271722 47105
ALPHASAT                
1 39215U 13038A   26159.74123889  .00000148  00000+0  00000+0 0  9991
2 39215   2.9979   1.3647 0001899  91.0815  96.3885  1.00268594 43933
INSAT-3D                
1 39216U 13038B   26159.79716619 -.00000322  00000+0  00000+0 0  9991
2 39216   1.9033  82.6489 0000784 318.0387 272.9854  1.00273715 46996
WGS F6 (USA 244)        
1 39222U 13041A   26159.74472448  .00000105  00000+0  00000+0 0  9994
2 39222   0.0025  73.3501 0000003 260.8497  55.8650  1.00271265 45973
ES'HAIL 1               
1 39233U 13044A   26159.74067279  .00000159  00000+0  00000+0 0  9990
2 39233   0.0488   4.0774 0002320  69.5838 115.5775  1.00271052 46548
